ONEWEB-0228             
1 48780U 21045P   24162.15733914  .00000390  00000+0  10014-2 0  9996
2 48780  87.9029  45.8500 0002179  79.9963 280.1413 13.15553635148557
